COMMENT,ORIGINATOR,NORAD_CAT_ID,OBJECT_NAME,OBJECT_TYPE,CLASSIFICATION_TYPE,INTLDES,EPOCH,EPOCH_MICROSECONDS,MEAN_MOTION,ECCENTRICITY,INCLINATION,RA_OF_ASC_NODE,ARG_OF_PERICENTER,MEAN_ANOMALY,EPHEMERIS_TYPE,ELEMENT_SET_NO,REV_AT_EPOCH,BSTAR,MEAN_MOTION_DOT,MEAN_MOTION_DDOT,FILE,TLE_LINE0,TLE_LINE1,TLE_LINE2,OBJECT_ID,OBJECT_NUMBER,SEMIMAJOR_AXIS,PERIOD,APOGEE,PERIGEE,DECAYED
"GENERATED VIA SPACETRACK.ORG API","18 SPCS","51110","STARLINK-3344","PAYLOAD","U","22005G","2022-11-04 13:36:26","883648","15.08866206","0.000227","53.2172","10.965","32.3824","327.7307","0","999","4453","0.0002412","0.00003555","0","3644787","0 STARLINK-3344","1 51110U 22005G   22308.56697782  .00003555  00000-0  24120-3 0  9992","2 51110  53.2172  10.9650 0002270  32.3824 327.7307 15.08866206 44531","2022-005G","51110","6917.800","95.436","541.236","538.095","0"
"GENERATED VIA SPACETRACK.ORG API","18 SPCS","51110","STARLINK-3344","PAYLOAD","U","22005G","2022-11-04 16:47:13","191936","15.08860641","0.0002366","53.217","10.37","31.4464","328.6669","0","999","4566","0.000059041","0.00000652","0","3644965","0 STARLINK-3344","1 51110U 22005G   22308.69945824  .00000652  00000-0  59041-4 0  9995","2 51110  53.2170  10.3700 0002366  31.4464 328.6669 15.08860641 45668","2022-005G","51110","6917.817","95.436","541.319","538.046","0"
"GENERATED VIA SPACETRACK.ORG API","18 SPCS","51110","STARLINK-3344","PAYLOAD","U","22005G","2022-11-04 16:47:13","191936","15.08860641","0.0002366","53.217","10.37","31.4464","328.6669","0","999","4455","0.000059041","0.00000652","0","3645105","0 STARLINK-3344","1 51110U 22005G   22308.69945824  .00000652  00000-0  59041-4 0  9995","2 51110  53.2170  10.3700 0002366  31.4464 328.6669 15.08860641 44555","2022-005G","51110","6917.817","95.436","541.319","538.046","0"
"GENERATED VIA SPACETRACK.ORG API","18 SPCS","51110","STARLINK-3344","PAYLOAD","U","22005G","2022-11-05 03:54:55","171584","15.08845601","0.000228","53.2162","8.2879","35.0325","325.0817","0","999","4573","-0.00018435","-0.00003222","0","3645356","0 STARLINK-3344","1 51110U 22005G   22309.16313856 -.00003222  00000-0 -18435-3 0  9991","2 51110  53.2162   8.2879 0002280  35.0325 325.0817 15.08845601 45736","2022-005G","51110","6917.863","95.437","541.306","538.151","0"
"GENERATED VIA SPACETRACK.ORG API","18 SPCS","51110","STARLINK-3344","PAYLOAD","U","22005G","2022-11-05 10:16:28","311744","15.08831035","0.0002635","53.2184","7.1002","33.827","326.289","0","999","4466","-0.00043944","-0.00007274","0","3645109","0 STARLINK-3344","1 51110U 22005G   22309.42810546 -.00007274  00000-0 -43944-3 0  9992","2 51110  53.2184   7.1002 0002635  33.8270 326.2890 15.08831035 44666","2022-005G","51110","6917.908","95.438","541.596","537.950","0"
"GENERATED VIA SPACETRACK.ORG API","18 SPCS","51110","STARLINK-3344","PAYLOAD","U","22005G","2022-11-05 13:27:15","24384","15.08816478","0.0002374","53.2174","6.5037","31.8925","328.221","0","999","4579","-0.00062245","-0.00010175","0","3645655","0 STARLINK-3344","1 51110U 22005G   22309.56059056 -.00010175  00000-0 -62245-3 0  9997","2 51110  53.2174   6.5037 0002374  31.8925 328.2210 15.08816478 45798","2022-005G","51110","6917.952","95.439","541.460","538.175","0"
"GENERATED VIA SPACETRACK.ORG API","18 SPCS","51110","STARLINK-3344","PAYLOAD","U","22005G","2022-11-05 13:27:15","24384","15.08816478","0.0002374","53.2174","6.5037","31.8925","328.221","0","999","4468","-0.00062245","-0.00010175","0","3646512","0 STARLINK-3344","1 51110U 22005G   22309.56059056 -.00010175  00000-0 -62245-3 0  9997","2 51110  53.2174   6.5037 0002374  31.8925 328.2210 15.08816478 44685","2022-005G","51110","6917.952","95.439","541.460","538.175","0"
"GENERATED VIA SPACETRACK.ORG API","18 SPCS","51110","STARLINK-3344","PAYLOAD","U","22005G","2022-11-06 10:07:16","911264","15.08833106","0.0002437","53.217","2.638","31.3996","328.7141","0","999","4592","0.0011367","0.00017846","0","3646944","0 STARLINK-3344","1 51110U 22005G   22310.42172351  .00017846  00000-0  11367-2 0  9996","2 51110  53.2170   2.6380 0002437  31.3996 328.7141 15.08833106 45925","2022-005G","51110","6917.901","95.438","541.452","538.081","0"
"GENERATED VIA SPACETRACK.ORG API","18 SPCS","51110","STARLINK-3344","PAYLOAD","U","22005G","2022-11-06 10:07:16","911264","15.08833106","0.0002437","53.217","2.638","31.3996","328.7141","0","999","4481","0.0011367","0.00017846","0","3647066","0 STARLINK-3344","1 51110U 22005G   22310.42172351  .00017846  00000-0  11367-2 0  9996","2 51110  53.2170   2.6380 0002437  31.3996 328.7141 15.08833106 44812","2022-005G","51110","6917.901","95.438","541.452","538.081","0"
"GENERATED VIA SPACETRACK.ORG API","18 SPCS","51110","STARLINK-3344","PAYLOAD","U","22005G","2022-11-07 03:36:31","492800","15.08845602","0.0002509","53.2152","359.3679","38.1489","321.9681","0","999","4603","0.00054251","0.00008358","0","3647500","0 STARLINK-3344","1 51110U 22005G   22311.15036450  .00008358  00000-0  54251-3 0  9994","2 51110  53.2152 359.3679 0002509  38.1489 321.9681 15.08845602 46031","2022-005G","51110","6917.863","95.437","541.464","537.993","0"
"GENERATED VIA SPACETRACK.ORG API","18 SPCS","51110","STARLINK-3344","PAYLOAD","U","22005G","2022-11-07 13:08:50","644032","15.0883735","0.0002615","53.2182","357.584","24.3548","335.7567","0","999","4609","0.00031558","0.00004737","0","3647829","0 STARLINK-3344","1 51110U 22005G   22311.54780838  .00004737  00000-0  31558-3 0  9995","2 51110  53.2182 357.5840 0002615  24.3548 335.7567 15.08837350 46098","2022-005G","51110","6917.888","95.438","541.563","537.944","0"
"GENERATED VIA SPACETRACK.ORG API","18 SPCS","51110","STARLINK-3344","PAYLOAD","U","22005G","2022-11-07 13:08:50","644032","15.0883735","0.0002615","53.2182","357.584","24.3548","335.7567","0","999","4498","0.00031558","0.00004737","0","3648233","0 STARLINK-3344","1 51110U 22005G   22311.54780838  .00004737  00000-0  31558-3 0  9995","2 51110  53.2182 357.5840 0002615  24.3548 335.7567 15.08837350 44984","2022-005G","51110","6917.888","95.438","541.563","537.944","0"
"GENERATED VIA SPACETRACK.ORG API","18 SPCS","51110","STARLINK-3344","PAYLOAD","U","22005G","2022-11-08 03:27:18","267552","15.08861993","0.0002369","53.2177","354.906","32.7585","327.3554","0","999","4618","0.00086234","0.00013471","0","3648378","0 STARLINK-3344","1 51110U 22005G   22312.14396143  .00013471  00000-0  86234-3 0  9990","2 51110  53.2177 354.9060 0002369  32.7585 327.3554 15.08861993 46180","2022-005G","51110","6917.813","95.436","541.317","538.039","0"
"GENERATED VIA SPACETRACK.ORG API","18 SPCS","51110","STARLINK-3344","PAYLOAD","U","22005G","2022-11-08 09:48:50","416704","15.08874641","0.0002534","53.2175","353.7174","30.5937","329.5203","0","999","4511","0.00096153","0.00015063","0","3648805","0 STARLINK-3344","1 51110U 22005G   22312.40891686  .00015063  00000-0  96153-3 0  9991","2 51110  53.2175 353.7174 0002534  30.5937 329.5203 15.08874641 45113","2022-005G","51110","6917.775","95.435","541.392","537.887","0"
"GENERATED VIA SPACETRACK.ORG API","18 SPCS","51110","STARLINK-3344","PAYLOAD","U","22005G","2022-11-09 03:18:03","884544","15.08872791","0.0002608","53.2187","350.4444","31.3243","328.7904","0","999","4633","0.00023323","0.00003429","0","3649223","0 STARLINK-3344","1 51110U 22005G   22313.13754496  .00003429  00000-0  23323-3 0  9991","2 51110  53.2187 350.4444 0002608  31.3243 328.7904 15.08872791 46339","2022-005G","51110","6917.780","95.435","541.449","537.841","0"
"GENERATED VIA SPACETRACK.ORG API","18 SPCS","51110","STARLINK-3344","PAYLOAD","U","22005G","2022-11-09 09:39:36","680832","15.08835854","0.0002365","53.2172","349.2569","30.6128","329.5002","0","999","4526","0.00043666","0.00006667","0","3649526","0 STARLINK-3344","1 51110U 22005G   22313.40250788  .00006667  00000-0  43666-3 0  9995","2 51110  53.2172 349.2569 0002365  30.6128 329.5002 15.08835854 45269","2022-005G","51110","6917.893","95.438","541.394","538.122","0"
"GENERATED VIA SPACETRACK.ORG API","18 SPCS","51110","STARLINK-3344","PAYLOAD","U","22005G","2022-11-09 19:11:55","758624","15.08838477","0.0002628","53.217","347.4726","29.1016","331.0122","0","999","4643","0.0011789","0.00018524","0","3649679","0 STARLINK-3344","1 51110U 22005G   22313.79995091  .00018524  00000-0  11789-2 0  9995","2 51110  53.2170 347.4726 0002628  29.1016 331.0122 15.08838477 46438","2022-005G","51110","6917.885","95.438","541.568","537.932","0"
"GENERATED VIA SPACETRACK.ORG API","18 SPCS","51110","STARLINK-3344","PAYLOAD","U","22005G","2022-11-09 19:11:55","758624","15.08838477","0.0002628","53.217","347.4726","29.1016","331.0122","0","999","4532","0.0011789","0.00018524","0","3650001","0 STARLINK-3344","1 51110U 22005G   22313.79995091  .00018524  00000-0  11789-2 0  9995","2 51110  53.2170 347.4726 0002628  29.1016 331.0122 15.08838477 45325","2022-005G","51110","6917.885","95.438","541.568","537.932","0"
"GENERATED VIA SPACETRACK.ORG API","18 SPCS","51110","STARLINK-3344","PAYLOAD","U","22005G","2022-11-10 09:30:24","653952","15.08811672","0.0002481","53.2171","344.7964","31.099","329.0149","0","999","4541","-0.00033536","-0.00005618","0","3650424","0 STARLINK-3344","1 51110U 22005G   22314.39611868 -.00005618  00000-0 -33536-3 0  9996","2 51110  53.2171 344.7964 0002481  31.0990 329.0149 15.08811672 45414","2022-005G","51110","6917.967","95.439","541.548","538.116","0"
"GENERATED VIA SPACETRACK.ORG API","18 SPCS","51110","STARLINK-3344","PAYLOAD","U","22005G","2022-11-10 12:41:10","938912","15.08818744","0.0002272","53.2169","344.2016","29.2878","330.8242","0","999","4654","-0.00022986","-0.00003943","0","3650576","0 STARLINK-3344","1 51110U 22005G   22314.52859883 -.00003943  00000-0 -22986-3 0  9998","2 51110  53.2169 344.2016 0002272  29.2878 330.8242 15.08818744 46542","2022-005G","51110","6917.945","95.439","541.382","538.239","0"
